ONEWEB-0424             
1 50497U 21132AE  23282.13156394  .00000186  00000+0  44025-3 0  9995
2 50497  87.9204 170.7812 0001370  60.5804 299.5465 13.18687134 93494
ONEWEB-0426             
1 50498U 21132AF  23281.71424381  .00000529  00000+0  13094-2 0  9995
2 50498  87.9272 170.8793 0001853 100.0256 260.1086 13.18687228 92100
ONEWEB-0427             
1 50499U 21132AG  23281.75007096  .00000109  00000+0  24300-3 0  9997
2 50499  87.9208 170.8609 0001482  81.2219 278.9081 13.18687572 92130
ONEWEB-0429             
1 50500U 21132AH  23282.19268587  .00000120  00000+0  27053-3 0  9994
2 50500  87.9268 170.7672 0001813  70.8377 289.2952 13.18690502 93450
ONEWEB-0430             
1 50501U 21132AJ  23281.72689545  .00000068  00000+0  13925-3 0  9998
2 50501  87.9287 170.8560 0001636  68.8305 291.3001 13.18690043 92144
ONEWEB-0432             
1 50502U 21132AK  23282.13788432  .00000157  00000+0  36663-3 0  9993
2 50502  87.9204 170.7807 0001741  72.6352 287.4970 13.18685781 93458
ONEWEB-0440             
1 50503U 21132AL  23281.74585294  .00000082  00000+0  17486-3 0  9990
2 50503  87.9210 170.8731 0002446  83.6051 276.5360 13.18687471 92093
ONEWEB-0450             
1 50504U 21132AM  23282.19479556  .00000162  00000+0  37899-3 0  9993
2 50504  87.9255 170.7937 0002020  65.1491 294.9851 13.18685666 93477
